PROBA-1                 
1 26958U 01049B   26154.92741727  .00001052  00000+0  71664-4 0  9996
2 26958  97.9597 162.9974 0055398 165.9939 194.2840 15.07435237341629
CUTE-1 (CO-55)          
1 27844U 03031E   26154.54951729  .00000336  00000+0  16425-3 0  9994
2 27844  98.6736 163.2800 0008690 219.4250 140.6297 14.24327019189732
CUBESAT XI-IV (CO-57)   
1 27848U 03031J   26152.00092913  .00000288  00000+0  14576-3 0  9999
2 27848  98.6768 160.4891 0008288 248.3946 111.6350 14.23611465189071
APRIZESAT 4             
1 35684U 09041D   26154.16376698  .00000865  00000+0  10959-3 0  9999
2 35684  98.1413 229.2048 0043448   8.9660 351.2319 14.83859127909283
APRIZESAT 3             
1 35686U 09041F   26154.52314257  .00001788  00000+0  15817-3 0  9997
2 35686  98.2057 307.0943 0063033 111.6819 249.1129 14.96201835914336
PROBA-2                 
1 36037U 09059B   26154.82922002  .00000207  00000+0  58806-4 0  9994
2 36037  98.2448 338.3675 0012464 326.9323  33.1093 14.54856396879583
APRIZESAT 5             
1 37792U 11044E   26154.29264145  .00001362  00000+0  17886-3 0  9993
2 37792  98.2453  86.9399 0053346  48.4993 312.0779 14.81043416796736
APRIZESAT 6             
1 37793U 11044F   26154.66519513  .00000834  00000+0  12461-3 0  9994
2 37793  98.2373  64.8884 0044159 128.0800 296.4477 14.76895152795157
PROBA-V                 
1 39159U 13021A   26154.55418208  .00000074  00000+0  50465-4 0  9999
2 39159  98.3577 133.8344 0004486 157.0674 203.0707 14.23593894679173
APRIZESAT 7             
1 39416U 13066A   26154.46842510  .00001374  00000+0  14142-3 0  9996
2 39416  97.7702 107.8862 0034277 256.3956 103.3444 14.91532678679184
APRIZESAT 8             
1 39425U 13066K   26153.81470438  .00001329  00000+0  14973-3 0  9992
2 39425  97.8214 101.4839 0045322 335.0399  24.8626 14.87621023677530
BUGSAT-1 (TITA)         
1 40014U 14033E   26154.89709435  .00005900  00000+0  31331-3 0  9990
2 40014  98.0425 246.6705 0027031 224.2267 135.6804 15.15434247653824
SAUDISAT 4              
1 40016U 14033G   26154.32230776  .00000914  00000+0  12686-3 0  9999
2 40016  97.7567 300.9383 0046100 117.7268 242.8631 14.79523690644021
APRIZESAT 9             
1 40018U 14033J   26154.29329893  .00000722  00000+0  11360-3 0  9991
2 40018  97.9044 287.8329 0064878 244.4445 115.0047 14.74195339641518
APRIZESAT 10            
1 40019U 14033K   26154.58919539  .00000493  00000+0  85308-4 0  9995
2 40019  97.9634 281.8532 0077837 317.9677  41.5573 14.70870307640254
TECHDEMOSAT-1 (TDS-1)   
1 40076U 14037H   26154.53647005  .00009479  00000+0  53972-3 0  9997
2 40076  98.3810 145.3987 0005072 327.0999  32.9913 15.13072942646162
TECHNOSAT               
1 42829U 17042E   26154.75162404  .00003283  00000+0  23544-3 0  9992
2 42829  97.4274 312.9235 0018983 136.0818 224.1922 15.04873630484680
FLYING LAPTOP           
1 42831U 17042G   26154.92025234  .00005830  00000+0  45877-3 0  9996
2 42831  97.4636 310.9691 0018759 165.1788 194.9990 15.01057120484469
HAWK-A                  
1 43765U 18099H   26154.63050623  .00007483  00000+0  30263-3 0  9993
2 43765  97.3915 207.0440 0033977 335.6771  24.2861 15.24472622411036
HAWK-B                  
1 43794U 18099AN  26154.63593793  .00006936  00000+0  29685-3 0  9993
2 43794  97.3965 206.4927 0031660 354.1895   5.8969 15.22666474410970
HAWK-C                  
1 43799U 18099AT  26154.11366249  .00008327  00000+0  30156-3 0  9996
2 43799  97.3893 207.3775 0039670 337.4427  22.5066 15.27890589411763
SALSAT                  
1 46495U 20068K   26154.53943321  .00008826  00000+0  31028-3 0  9992
2 46495  97.8849 156.7757 0009424   1.6764 358.4505 15.29589697313273
HAWK-2C                 
1 47502U 21006CT  26154.58926046  .00007053  00000+0  21336-3 0  9997
2 47502  97.2279 199.1713 0005285 240.1664 119.9054 15.34491080297417
HAWK-2A                 
1 47505U 21006CW  26154.59188709  .00007101  00000+0  21471-3 0  9991
2 47505  97.2323 199.8437 0004778 245.0276 115.0472 15.34506342297418
HAWK-2B                 
1 47508U 21006CZ  26154.58810438  .00007914  00000+0  23850-3 0  9999
2 47508  97.2190 198.1936 0005278 242.0908 117.9802 15.34571156297417
HAWK-3B                 
1 48931U 21059BE  26154.48452677  .00043006  00000+0  38292-3 0  9992
2 48931  97.6668 349.9088 0004371  31.1458 329.0061 15.68363041275706
HAWK-3C                 
1 48948U 21059BX  26154.54802692  .00045370  00000+0  40351-3 0  9998
2 48948  97.6785 355.6399 0004823  32.9687 327.1873 15.68377716275713
HAWK-3A                 
1 48957U 21059CG  26154.54792046  .00048338  00000+0  42974-3 0  9999
2 48957  97.6731 352.8564 0004728  33.6884 326.4676 15.68374480275716
HAWK-5C                 
1 52754U 22057Y   26153.85167066  .00020406  00000+0  35454-3 0  9990
2 52754  97.6583 312.6023 0005529 125.0244 235.1527 15.50847845224122
HAWK-5B                 
1 52756U 22057AA  26154.23865968  .00021506  00000+0  37323-3 0  9990
2 52756  97.6591 311.3622 0005999 116.1777 244.0092 15.50865178224188
